ONEWEB-0434             
1 51631U 22012K   25254.25335162  .00000002  00000+0 -29214-4 0  9992
2 51631  87.8741  91.9212 0002292  80.7121 279.4266 13.10369990172794
ONEWEB-0435             
1 51632U 22012L   25254.26163545 -.00000472  00000+0 -13894-2 0  9995
2 51632  87.8739  91.9114 0001350  75.2860 284.8417 13.10368821172785
ONEWEB-0436             
1 51633U 22012M   25253.99490754  .00000049  00000+0  92216-4 0  9995
2 51633  87.9037  61.3723 0001458  90.2221 269.9078 13.17650463176911
ONEWEB-0438             
1 51634U 22012N   25254.24504979  .00000444  00000+0  12365-2 0  9994
2 51634  87.8740  91.9153 0001842  84.8782 275.2555 13.10369746172815
ONEWEB-0439             
1 51635U 22012P   25254.24836654  .00000229  00000+0  62035-3 0  9994
2 51635  87.8738  91.9032 0001650  83.0215 277.1101 13.10369016172793
ONEWEB-0442             
1 51636U 22012Q   25254.21514289 -.00000049  00000+0 -15872-3 0  9998
2 51636  87.9037  61.3822 0002371  95.3265 264.8137 13.17648422176937
ONEWEB-0443             
1 51637U 22012R   25254.15860394  .00000071  00000+0  15021-3 0  9992
2 51637  87.9031  61.4010 0001901  82.3774 277.7574 13.17649774176974
ONEWEB-0444             
1 51638U 22012S   25254.23842164  .00000596  00000+0  16703-2 0  9996
2 51638  87.8739  91.9052 0001626  81.7019 278.4293 13.10372222172800
ONEWEB-0445             
1 51639U 22012T   25254.25998730 -.00000359  00000+0 -10656-2 0  9990
2 51639  87.8746  91.8545 0001736  91.6320 268.5006 13.10370701172815
ONEWEB-0446             
1 51640U 22012U   25254.00768313  .00000626  00000+0  17561-2 0  9994
2 51640  87.8739  91.9669 0001681  93.6960 266.4359 13.10370492172767
ONEWEB-0448             
1 51641U 22012V   25253.78358813  .00000452  00000+0  12577-2 0  9998
2 51641  87.8741  92.0113 0001640  82.9786 277.1528 13.10371517172709
ONEWEB-0449             
1 51642U 22012W   25254.24671848  .00000339  00000+0  93339-3 0  9997
2 51642  87.8737  91.8897 0002131  81.7902 278.3467 13.10370554172776
ONEWEB-0451             
1 51643U 22012X   25254.21935054 -.00000006  00000+0 -49879-4 0  9991
2 51643  87.9045  61.3198 0001891  89.5856 270.5493 13.17648594176925
ONEWEB-0452             
1 51644U 22012Y   25254.21766770  .00000042  00000+0  73721-4 0  9990
2 51644  87.9038  61.3826 0001892  84.4061 275.7286 13.17650371176933
ONEWEB-0456             
1 51646U 22012AA  25254.25665548 -.00000165  00000+0 -50976-3 0  9991
2 51646  87.8745  91.8483 0001502  83.7815 276.3484 13.10369549172810
ONEWEB-0457             
1 51647U 22012AB  25254.00437425  .00000702  00000+0  19751-2 0  9996
2 51647  87.8740  91.9554 0002032  90.8403 269.2957 13.10373442172786
ONEWEB-0458             
1 51648U 22012AC  25254.25500381 -.00000125  00000+0 -39354-3 0  9999
2 51648  87.8733  91.8768 0001791  81.2174 278.9156 13.10369321172773
