[{"OBJECT_NAME":"ONEWEB-0434","OBJECT_ID":"2022-012K","EPOCH":"2025-09-11T06:04:49.579968","MEAN_MOTION":13.1036999,"ECCENTRICITY":0.00022922,"INCLINATION":87.8741,"RA_OF_ASC_NODE":91.9212,"ARG_OF_PERICENTER":80.7121,"MEAN_ANOMALY":279.4266,"EPHEMERIS_TYPE":0,"CLASSIFICATION_TYPE":"U","NORAD_CAT_ID":51631,"ELEMENT_SET_NO":999,"REV_AT_EPOCH":17279,"BSTAR":-2.921354e-5,"MEAN_MOTION_DOT":2.0e-8,"MEAN_MOTION_DDOT":0},{"OBJECT_NAME":"ONEWEB-0435","OBJECT_ID":"2022-012L","EPOCH":"2025-09-11T06:16:45.302880","MEAN_MOTION":13.10368821,"ECCENTRICITY":0.00013502,"INCLINATION":87.8739,"RA_OF_ASC_NODE":91.9114,"ARG_OF_PERICENTER":75.286,"MEAN_ANOMALY":284.8417,"EPHEMERIS_TYPE":0,"CLASSIFICATION_TYPE":"U","NORAD_CAT_ID":51632,"ELEMENT_SET_NO":999,"REV_AT_EPOCH":17278,"BSTAR":-0.0013894258,"MEAN_MOTION_DOT":-4.72e-6,"MEAN_MOTION_DDOT":0},{"OBJECT_NAME":"ONEWEB-0436","OBJECT_ID":"2022-012M","EPOCH":"2025-09-10T23:52:40.011456","MEAN_MOTION":13.17650463,"ECCENTRICITY":0.00014584,"INCLINATION":87.9037,"RA_OF_ASC_NODE":61.3723,"ARG_OF_PERICENTER":90.2221,"MEAN_ANOMALY":269.9078,"EPHEMERIS_TYPE":0,"CLASSIFICATION_TYPE":"U","NORAD_CAT_ID":51633,"ELEMENT_SET_NO":999,"REV_AT_EPOCH":17691,"BSTAR":9.2216304e-5,"MEAN_MOTION_DOT":4.9e-7,"MEAN_MOTION_DDOT":0},{"OBJECT_NAME":"ONEWEB-0438","OBJECT_ID":"2022-012N","EPOCH":"2025-09-11T05:52:52.301856","MEAN_MOTION":13.10369746,"ECCENTRICITY":0.00018422,"INCLINATION":87.874,"RA_OF_ASC_NODE":91.9153,"ARG_OF_PERICENTER":84.8782,"MEAN_ANOMALY":275.2555,"EPHEMERIS_TYPE":0,"CLASSIFICATION_TYPE":"U","NORAD_CAT_ID":51634,"ELEMENT_SET_NO":999,"REV_AT_EPOCH":17281,"BSTAR":0.001236517,"MEAN_MOTION_DOT":4.44e-6,"MEAN_MOTION_DDOT":0},{"OBJECT_NAME":"ONEWEB-0439","OBJECT_ID":"2022-012P","EPOCH":"2025-09-11T05:57:38.869056","MEAN_MOTION":13.10369016,"ECCENTRICITY":0.00016507,"INCLINATION":87.8738,"RA_OF_ASC_NODE":91.9032,"ARG_OF_PERICENTER":83.0215,"MEAN_ANOMALY":277.1101,"EPHEMERIS_TYPE":0,"CLASSIFICATION_TYPE":"U","NORAD_CAT_ID":51635,"ELEMENT_SET_NO":999,"REV_AT_EPOCH":17279,"BSTAR":0.00062034842,"MEAN_MOTION_DOT":2.29e-6,"MEAN_MOTION_DDOT":0},{"OBJECT_NAME":"ONEWEB-0442","OBJECT_ID":"2022-012Q","EPOCH":"2025-09-11T05:09:48.345696","MEAN_MOTION":13.17648422,"ECCENTRICITY":0.00023711,"INCLINATION":87.9037,"RA_OF_ASC_NODE":61.3822,"ARG_OF_PERICENTER":95.3265,"MEAN_ANOMALY":264.8137,"EPHEMERIS_TYPE":0,"CLASSIFICATION_TYPE":"U","NORAD_CAT_ID":51636,"ELEMENT_SET_NO":999,"REV_AT_EPOCH":17693,"BSTAR":-0.00015871968,"MEAN_MOTION_DOT":-4.9e-7,"MEAN_MOTION_DDOT":0},{"OBJECT_NAME":"ONEWEB-0443","OBJECT_ID":"2022-012R","EPOCH":"2025-09-11T03:48:23.380416","MEAN_MOTION":13.17649774,"ECCENTRICITY":0.00019018,"INCLINATION":87.9031,"RA_OF_ASC_NODE":61.401,"ARG_OF_PERICENTER":82.3774,"MEAN_ANOMALY":277.7574,"EPHEMERIS_TYPE":0,"CLASSIFICATION_TYPE":"U","NORAD_CAT_ID":51637,"ELEMENT_SET_NO":999,"REV_AT_EPOCH":17697,"BSTAR":0.000150211,"MEAN_MOTION_DOT":7.1e-7,"MEAN_MOTION_DDOT":0},{"OBJECT_NAME":"ONEWEB-0444","OBJECT_ID":"2022-012S","EPOCH":"2025-09-11T05:43:19.629696","MEAN_MOTION":13.10372222,"ECCENTRICITY":0.00016269,"INCLINATION":87.8739,"RA_OF_ASC_NODE":91.9052,"ARG_OF_PERICENTER":81.7019,"MEAN_ANOMALY":278.4293,"EPHEMERIS_TYPE":0,"CLASSIFICATION_TYPE":"U","NORAD_CAT_ID":51638,"ELEMENT_SET_NO":999,"REV_AT_EPOCH":17280,"BSTAR":0.0016703126,"MEAN_MOTION_DOT":5.96e-6,"MEAN_MOTION_DDOT":0},{"OBJECT_NAME":"ONEWEB-0445","OBJECT_ID":"2022-012T","EPOCH":"2025-09-11T06:14:22.902720","MEAN_MOTION":13.10370701,"ECCENTRICITY":0.00017368,"INCLINATION":87.8746,"RA_OF_ASC_NODE":91.8545,"ARG_OF_PERICENTER":91.632,"MEAN_ANOMALY":268.5006,"EPHEMERIS_TYPE":0,"CLASSIFICATION_TYPE":"U","NORAD_CAT_ID":51639,"ELEMENT_SET_NO":999,"REV_AT_EPOCH":17281,"BSTAR":-0.0010655652,"MEAN_MOTION_DOT":-3.59e-6,"MEAN_MOTION_DDOT":0},{"OBJECT_NAME":"ONEWEB-0446","OBJECT_ID":"2022-012U","EPOCH":"2025-09-11T00:11:03.822432","MEAN_MOTION":13.10370492,"ECCENTRICITY":0.00016818,"INCLINATION":87.8739,"RA_OF_ASC_NODE":91.9669,"ARG_OF_PERICENTER":93.696,"MEAN_ANOMALY":266.4359,"EPHEMERIS_TYPE":0,"CLASSIFICATION_TYPE":"U","NORAD_CAT_ID":51640,"ELEMENT_SET_NO":999,"REV_AT_EPOCH":17276,"BSTAR":0.0017560562,"MEAN_MOTION_DOT":6.26e-6,"MEAN_MOTION_DDOT":0},{"OBJECT_NAME":"ONEWEB-0448","OBJECT_ID":"2022-012V","EPOCH":"2025-09-10T18:48:22.014432","MEAN_MOTION":13.10371517,"ECCENTRICITY":0.00016407,"INCLINATION":87.8741,"RA_OF_ASC_NODE":92.0113,"ARG_OF_PERICENTER":82.9786,"MEAN_ANOMALY":277.1528,"EPHEMERIS_TYPE":0,"CLASSIFICATION_TYPE":"U","NORAD_CAT_ID":51641,"ELEMENT_SET_NO":999,"REV_AT_EPOCH":17270,"BSTAR":0.0012577115,"MEAN_MOTION_DOT":4.52e-6,"MEAN_MOTION_DDOT":0},{"OBJECT_NAME":"ONEWEB-0449","OBJECT_ID":"2022-012W","EPOCH":"2025-09-11T05:55:16.476672","MEAN_MOTION":13.10370554,"ECCENTRICITY":0.00021316,"INCLINATION":87.8737,"RA_OF_ASC_NODE":91.8897,"ARG_OF_PERICENTER":81.7902,"MEAN_ANOMALY":278.3467,"EPHEMERIS_TYPE":0,"CLASSIFICATION_TYPE":"U","NORAD_CAT_ID":51642,"ELEMENT_SET_NO":999,"REV_AT_EPOCH":17277,"BSTAR":0.00093338708,"MEAN_MOTION_DOT":3.39e-6,"MEAN_MOTION_DDOT":0},{"OBJECT_NAME":"ONEWEB-0451","OBJECT_ID":"2022-012X","EPOCH":"2025-09-11T05:15:51.886656","MEAN_MOTION":13.17648594,"ECCENTRICITY":0.00018916,"INCLINATION":87.9045,"RA_OF_ASC_NODE":61.3198,"ARG_OF_PERICENTER":89.5856,"MEAN_ANOMALY":270.5493,"EPHEMERIS_TYPE":0,"CLASSIFICATION_TYPE":"U","NORAD_CAT_ID":51643,"ELEMENT_SET_NO":999,"REV_AT_EPOCH":17692,"BSTAR":-4.9879271e-5,"MEAN_MOTION_DOT":-6.0e-8,"MEAN_MOTION_DDOT":0},{"OBJECT_NAME":"ONEWEB-0452","OBJECT_ID":"2022-012Y","EPOCH":"2025-09-11T05:13:26.489280","MEAN_MOTION":13.17650371,"ECCENTRICITY":0.00018921,"INCLINATION":87.9038,"RA_OF_ASC_NODE":61.3826,"ARG_OF_PERICENTER":84.4061,"MEAN_ANOMALY":275.7286,"EPHEMERIS_TYPE":0,"CLASSIFICATION_TYPE":"U","NORAD_CAT_ID":51644,"ELEMENT_SET_NO":999,"REV_AT_EPOCH":17693,"BSTAR":7.3720919e-5,"MEAN_MOTION_DOT":4.2e-7,"MEAN_MOTION_DDOT":0},{"OBJECT_NAME":"ONEWEB-0456","OBJECT_ID":"2022-012AA","EPOCH":"2025-09-11T06:09:35.033472","MEAN_MOTION":13.10369549,"ECCENTRICITY":0.00015025,"INCLINATION":87.8745,"RA_OF_ASC_NODE":91.8483,"ARG_OF_PERICENTER":83.7815,"MEAN_ANOMALY":276.3484,"EPHEMERIS_TYPE":0,"CLASSIFICATION_TYPE":"U","NORAD_CAT_ID":51646,"ELEMENT_SET_NO":999,"REV_AT_EPOCH":17281,"BSTAR":-0.00050975753,"MEAN_MOTION_DOT":-1.65e-6,"MEAN_MOTION_DDOT":0},{"OBJECT_NAME":"ONEWEB-0457","OBJECT_ID":"2022-012AB","EPOCH":"2025-09-11T00:06:17.935200","MEAN_MOTION":13.10373442,"ECCENTRICITY":0.00020326,"INCLINATION":87.874,"RA_OF_ASC_NODE":91.9554,"ARG_OF_PERICENTER":90.8403,"MEAN_ANOMALY":269.2957,"EPHEMERIS_TYPE":0,"CLASSIFICATION_TYPE":"U","NORAD_CAT_ID":51647,"ELEMENT_SET_NO":999,"REV_AT_EPOCH":17278,"BSTAR":0.0019750613,"MEAN_MOTION_DOT":7.02e-6,"MEAN_MOTION_DDOT":0},{"OBJECT_NAME":"ONEWEB-0458","OBJECT_ID":"2022-012AC","EPOCH":"2025-09-11T06:07:12.329184","MEAN_MOTION":13.10369321,"ECCENTRICITY":0.00017911,"INCLINATION":87.8733,"RA_OF_ASC_NODE":91.8768,"ARG_OF_PERICENTER":81.2174,"MEAN_ANOMALY":278.9156,"EPHEMERIS_TYPE":0,"CLASSIFICATION_TYPE":"U","NORAD_CAT_ID":51648,"ELEMENT_SET_NO":999,"REV_AT_EPOCH":17277,"BSTAR":-0.00039353994,"MEAN_MOTION_DOT":-1.25e-6,"MEAN_MOTION_DDOT":0}]
